{
  "type": "FeatureCollection",
  "features": [
    {
      "type": "Feature",
      "properties": {
        "norad_id": 44624,
        "name": "EUTELSAT 5 WEST B (EGNOS/PRN 121)",
        "group": "gnss",
        "lat": 0.06931028792545114,
        "lon": 40.73731317315813,
        "alt_km": 35797.538762430486,
        "timestamp": "2025-12-10T21:43:22.331988+00:00",
        "meta_object_name": "EUTELSAT 5 WEST B (EGNOS/PRN 121)",
        "meta_object_id": "2019-067A",
        "meta_epoch": "2025-12-10T06:29:38.861952",
        "meta_mean_motion": 1.00271337,
        "meta_eccentricity": 0.00034665,
        "meta_inclination": 0.0636,
        "meta_ra_of_asc_node": 343.945,
        "meta_arg_of_pericenter": 276.083,
        "meta_mean_anomaly": 271.632,
        "meta_ephemeris_type": 0,
        "meta_classification_type": "U",
        "meta_norad_cat_id": 44624,
        "meta_element_set_no": 999,
        "meta_rev_at_epoch": 2254,
        "meta_bstar": 0,
        "meta_mean_motion_dot": -3.9e-07,
        "meta_mean_motion_ddot": 0,
        "tle_line1": "1 44624U 19067A   25344.27058868 -.00000039  00000+0  00000+0 0  9996",
        "tle_line2": "2 44624   0.0636 343.9450 0003466 276.0830 271.6320  1.00271337 22548"
      },
      "geometry": {
        "type": "Point",
        "coordinates": [
          40.73731317315813,
          0.06931028792545114
        ]
      }
    },
    {
      "type": "Feature",
      "properties": {
        "norad_id": 44709,
        "name": "BEIDOU-3 IGSO-3 (C40)",
        "group": "gnss",
        "lat": -43.29056131993587,
        "lon": 143.88286408318476,
        "alt_km": 35666.04180072883,
        "timestamp": "2025-12-10T21:43:22.332000+00:00",
        "meta_object_name": "BEIDOU-3 IGSO-3 (C40)",
        "meta_object_id": "2019-073A",
        "meta_epoch": "2025-11-20T07:11:22.740000",
        "meta_mean_motion": 1.00250097,
        "meta_eccentricity": 0.0044538,
        "meta_inclination": 55.163,
        "meta_ra_of_asc_node": 283.159,
        "meta_arg_of_pericenter": 191.5856,
        "meta_mean_anomaly": 168.2409,
        "meta_ephemeris_type": 0,
        "meta_classification_type": "U",
        "meta_norad_cat_id": 44709,
        "meta_element_set_no": 999,
        "meta_rev_at_epoch": 2236,
        "meta_bstar": 0,
        "meta_mean_motion_dot": -2.06e-06,
        "meta_mean_motion_ddot": 0,
        "tle_line1": "1 44709U 19073A   25324.29956875 -.00000206  00000+0  00000+0 0  9998",
        "tle_line2": "2 44709  55.1630 283.1590 0044538 191.5856 168.2409  1.00250097 22360"
      },
      "geometry": {
        "type": "Point",
        "coordinates": [
          143.88286408318476,
          -43.29056131993587
        ]
      }
    },
    {
      "type": "Feature",
      "properties": {
        "norad_id": 44793,
        "name": "BEIDOU-3 M22 (C44)",
        "group": "gnss",
        "lat": -13.752142995376762,
        "lon": 136.63217910773298,
        "alt_km": 21545.69822304646,
        "timestamp": "2025-12-10T21:43:22.332028+00:00",
        "meta_object_name": "BEIDOU-3 M22 (C44)",
        "meta_object_id": "2019-078A",
        "meta_epoch": "2025-12-10T01:47:05.181792",
        "meta_mean_motion": 1.86231719,
        "meta_eccentricity": 0.0005679,
        "meta_inclination": 54.1107,
        "meta_ra_of_asc_node": 306.4794,
        "meta_arg_of_pericenter": 23.2059,
        "meta_mean_anomaly": 336.8105,
        "meta_ephemeris_type": 0,
        "meta_classification_type": "U",
        "meta_norad_cat_id": 44793,
        "meta_element_set_no": 999,
        "meta_rev_at_epoch": 4112,
        "meta_bstar": 0,
        "meta_mean_motion_dot": -8e-07,
        "meta_mean_motion_ddot": 0,
        "tle_line1": "1 44793U 19078A   25344.07436553 -.00000080  00000+0  00000+0 0  9990",
        "tle_line2": "2 44793  54.1107 306.4794 0005679  23.2059 336.8105  1.86231719 41120"
      },
      "geometry": {
        "type": "Point",
        "coordinates": [
          136.63217910773298,
          -13.752142995376762
        ]
      }
    },
    {
      "type": "Feature",
      "properties": {
        "norad_id": 44794,
        "name": "BEIDOU-3 M21 (C43)",
        "group": "gnss",
        "lat": 51.54155264895165,
        "lon": 60.63212992932515,
        "alt_km": 21523.212112276873,
        "timestamp": "2025-12-10T21:43:22.332041+00:00",
        "meta_object_name": "BEIDOU-3 M21 (C43)",
        "meta_object_id": "2019-078B",
        "meta_epoch": "2025-12-09T03:18:47.736000",
        "meta_mean_motion": 1.86227438,
        "meta_eccentricity": 0.00038519,
        "meta_inclination": 54.0853,
        "meta_ra_of_asc_node": 306.4778,
        "meta_arg_of_pericenter": 10.0441,
        "meta_mean_anomaly": 349.953,
        "meta_ephemeris_type": 0,
        "meta_classification_type": "U",
        "meta_norad_cat_id": 44794,
        "meta_element_set_no": 999,
        "meta_rev_at_epoch": 4111,
        "meta_bstar": 0,
        "meta_mean_motion_dot": -7.6e-07,
        "meta_mean_motion_ddot": 0,
        "tle_line1": "1 44794U 19078B   25343.13805250 -.00000076  00000+0  00000+0 0  9996",
        "tle_line2": "2 44794  54.0853 306.4778 0003851  10.0441 349.9530  1.86227438 41118"
      },
      "geometry": {
        "type": "Point",
        "coordinates": [
          60.63212992932515,
          51.54155264895165
        ]
      }
    },
    {
      "type": "Feature",
      "properties": {
        "norad_id": 44850,
        "name": "COSMOS 2544 (759)",
        "group": "gnss",
        "lat": 34.08412734468638,
        "lon": 98.00543976547105,
        "alt_km": 19155.835899556525,
        "timestamp": "2025-12-10T21:43:22.332059+00:00",
        "meta_object_name": "COSMOS 2544 (759)",
        "meta_object_id": "2019-088A",
        "meta_epoch": "2025-12-09T10:44:40.843680",
        "meta_mean_motion": 2.13101756,
        "meta_eccentricity": 0.0013649,
        "meta_inclination": 65.4583,
        "meta_ra_of_asc_node": 80.0686,
        "meta_arg_of_pericenter": 249.1242,
        "meta_mean_anomaly": 110.7462,
        "meta_ephemeris_type": 0,
        "meta_classification_type": "U",
        "meta_norad_cat_id": 44850,
        "meta_element_set_no": 999,
        "meta_rev_at_epoch": 4667,
        "meta_bstar": 0,
        "meta_mean_motion_dot": -1.3e-07,
        "meta_mean_motion_ddot": 0,
        "tle_line1": "1 44850U 19088A   25343.44769495 -.00000013  00000+0  00000+0 0  9995",
        "tle_line2": "2 44850  65.4583  80.0686 0013649 249.1242 110.7462  2.13101756 46679"
      },
      "geometry": {
        "type": "Point",
        "coordinates": [
          98.00543976547105,
          34.08412734468638
        ]
      }
    },
    {
      "type": "Feature",
      "properties": {
        "norad_id": 44864,
        "name": "BEIDOU-3 M19 (C41)",
        "group": "gnss",
        "lat": -45.87341459475752,
        "lon": 25.817669818581198,
        "alt_km": 21485.24123799541,
        "timestamp": "2025-12-10T21:43:22.332070+00:00",
        "meta_object_name": "BEIDOU-3 M19 (C41)",
        "meta_object_id": "2019-090A",
        "meta_epoch": "2025-12-10T11:02:30.931872",
        "meta_mean_motion": 1.86231164,
        "meta_eccentricity": 0.00178827,
        "meta_inclination": 56.3915,
        "meta_ra_of_asc_node": 69.0363,
        "meta_arg_of_pericenter": 285.2259,
        "meta_mean_anomaly": 76.8475,
        "meta_ephemeris_type": 0,
        "meta_classification_type": "U",
        "meta_norad_cat_id": 44864,
        "meta_element_set_no": 999,
        "meta_rev_at_epoch": 4072,
        "meta_bstar": 0,
        "meta_mean_motion_dot": -5.5e-07,
        "meta_mean_motion_ddot": 0,
        "tle_line1": "1 44864U 19090A   25344.46008023 -.00000055  00000+0  00000+0 0  9995",
        "tle_line2": "2 44864  56.3915  69.0363 0017882 285.2259  76.8475  1.86231164 40725"
      },
      "geometry": {
        "type": "Point",
        "coordinates": [
          25.817669818581198,
          -45.87341459475752
        ]
      }
    },
    {
      "type": "Feature",
      "properties": {
        "norad_id": 44865,
        "name": "BEIDOU-3 M20 (C42)",
        "group": "gnss",
        "lat": 24.787193054014537,
        "lon": 86.92323304469292,
        "alt_km": 21526.601976020196,
        "timestamp": "2025-12-10T21:43:22.332081+00:00",
        "meta_object_name": "BEIDOU-3 M20 (C42)",
        "meta_object_id": "2019-090B",
        "meta_epoch": "2025-12-10T07:52:57.068256",
        "meta_mean_motion": 1.86231297,
        "meta_eccentricity": 0.00148891,
        "meta_inclination": 56.3932,
        "meta_ra_of_asc_node": 69.0753,
        "meta_arg_of_pericenter": 298.008,
        "meta_mean_anomaly": 65.4218,
        "meta_ephemeris_type": 0,
        "meta_classification_type": "U",
        "meta_norad_cat_id": 44865,
        "meta_element_set_no": 999,
        "meta_rev_at_epoch": 4070,
        "meta_bstar": 0,
        "meta_mean_motion_dot": -5.4e-07,
        "meta_mean_motion_ddot": 0,
        "tle_line1": "1 44865U 19090B   25344.32843829 -.00000054  00000+0  00000+0 0  9991",
        "tle_line2": "2 44865  56.3932  69.0753 0014889 298.0080  65.4218  1.86231297 40700"
      },
      "geometry": {
        "type": "Point",
        "coordinates": [
          86.92323304469292,
          24.787193054014537
        ]
      }
    }
  ]
}